NORAD_CAT_ID,OBJECT_NAME,OBJECT_TYPE,EPOCH,MEAN_MOTION,ECCENTRICITY,INCLINATION,RA_OF_ASC_NODE,ARG_OF_PERICENTER,MEAN_ANOMALY,BSTAR,MEAN_MOTION_DOT,MEAN_MOTION_DDOT,TLE_LINE0,TLE_LINE1,TLE_LINE2,SEMIMAJOR_AXIS,PERIOD,APOGEE,PERIGEE,DECAYED
49732.0,STARLINK-3246,PAYLOAD,2021-12-08 12:00:00,15.41631298,0.0002478,53.2173,291.0825,311.8958,246.3599,-0.021193,-0.00838569,0.0,0 STARLINK-3246,1 49732U 21115J   21342.50001157 -.00838569  00000-0 -21193-1 0  9994,2 49732  53.2173 291.0825 0002478 311.8958 246.3599 15.41631298  2124,6819.431,93.408,442.986,439.607,0.0
49732.0,STARLINK-3246,PAYLOAD,2021-12-08 22:00:00,15.40751004,0.00034,53.2177,289.1163,308.834,42.6303,-0.010211,-0.00402939,0.0,0 STARLINK-3246,1 49732U 21115J   21342.91667824 -.00402939  00000-0 -10211-1 0  9995,2 49732  53.2177 289.1163 0003400 308.8340  42.6303 15.40751004  2181,6822.029,93.461,446.213,441.574,0.0
49732.0,STARLINK-3246,PAYLOAD,2021-12-09 06:00:00,15.40460649,0.0004869,53.2177,287.5472,281.6693,119.5494,-1.5177e-05,-1.03e-05,0.0,0 STARLINK-3246,1 49732U 21115J   21343.25001157 -.00001030  00000-0 -15177-4 0  9990,2 49732  53.2177 287.5472 0004869 281.6693 119.5494 15.40460649  2238,6822.886,93.479,448.073,441.429,0.0
49732.0,STARLINK-3246,PAYLOAD,2021-12-09 12:00:00,15.40490379,0.0004967,53.2165,286.3692,275.5384,72.9026,-0.0010067,-0.00041638,0.0,0 STARLINK-3246,1 49732U 21115J   21343.50001157 -.00041638  00000-0 -10067-2 0  9997,2 49732  53.2165 286.3692 0004967 275.5384  72.9026 15.40490379  2274,6822.7980000000025,93.477,448.052,441.274,0.0
49732.0,STARLINK-3246,PAYLOAD,2021-12-09 22:00:00,15.40513042,0.0004854,53.2162,284.4059,275.5634,224.9157,-2.7999e-05,-1.56e-05,0.0,0 STARLINK-3246,1 49732U 21115J   21343.91667824 -.00001560  00000-0 -27999-4 0  9995,2 49732  53.2162 284.4059 0004854 275.5634 224.9157 15.40513042  1535,6822.731,93.475,447.908,441.284,0.0
49732.0,STARLINK-3246,PAYLOAD,2021-12-10 14:00:01,15.40522877,0.0004718999999999,53.2155,281.2646,279.1771,320.6055,-0.0017261,-0.00070908,0.0,0 STARLINK-3246,1 49732U 21115J   21344.58334491 -.00070908  00000-0 -17261-2 0  9991,2 49732  53.2155 281.2646 0004719 279.1771 320.6055 15.40522877  1634,6822.7019999999975,93.475,447.787,441.347,0.0
49732.0,STARLINK-3246,PAYLOAD,2021-12-10 22:00:00,15.40482397,0.0004459,53.2154,279.6941,279.9323,9.481,-0.001473,-0.00060566,0.0,0 STARLINK-3246,1 49732U 21115J   21344.91667824 -.00060566  00000-0 -14730-2 0  9994,2 49732  53.2154 279.6941 0004459 279.9323   9.4810 15.40482397  1682,6822.821999999999,93.477,447.729,441.644,0.0
49732.0,STARLINK-3246,PAYLOAD,2021-12-11 00:00:00,15.40466902,0.0004461,53.2153,279.302,281.4355,110.3812,-0.0011557,-0.00047662,0.0,0 STARLINK-3246,1 49732U 21115J   21345.00001157 -.00047662  00000-0 -11557-2 0  9992,2 49732  53.2153 279.3020 0004461 281.4355 110.3812 15.40466902  2502,6822.8669999999975,93.478,447.776,441.689,0.0
49732.0,STARLINK-3246,PAYLOAD,2021-12-11 12:00:00,15.40462087,0.0004452,53.2148,276.9459,283.8365,2.3306,-0.00061104,-0.00025459,0.0,0 STARLINK-3246,1 49732U 21115J   21345.50001157 -.00025459  00000-0 -61104-3 0  9991,2 49732  53.2148 276.9459 0004452 283.8365   2.3306 15.40462087  2588,6822.882,93.478,447.784,441.709,0.0
49732.0,STARLINK-3246,PAYLOAD,2021-12-11 14:00:01,15.40444462,0.0004436,53.215,276.5527,282.8903,105.6775,0.00026739,0.00010603,0.0,0 STARLINK-3246,1 49732U 21115J   21345.58334491  .00010603  00000-0  26739-3 0  9997,2 49732  53.2150 276.5527 0004436 282.8903 105.6775 15.40444462  1798,6822.934,93.48,447.825,441.772,0.0
49732.0,STARLINK-3246,PAYLOAD,2021-12-11 22:00:00,15.40475791,0.0004337,53.2151,274.9824,284.3017,153.8453,-0.00098239,-0.00040623,0.0,0 STARLINK-3246,1 49732U 21115J   21345.91667824 -.00040623  00000-0 -98239-3 0  9994,2 49732  53.2151 274.9824 0004337 284.3017 153.8453 15.40475791  2646,6822.840999999999,93.478,447.665,441.747,0.0
49732.0,STARLINK-3246,PAYLOAD,2021-12-12 14:00:01,15.40463311,0.0004335,53.2152,271.8408,287.5224,249.7945,-0.00028644,-0.0001217,0.0,0 STARLINK-3246,1 49732U 21115J   21346.58334491 -.00012170  00000-0 -28644-3 0  9998,2 49732  53.2152 271.8408 0004335 287.5224 249.7945 15.40463311  2741,6822.878000000002,93.478,447.701,441.785,0.0
49732.0,STARLINK-3246,PAYLOAD,2021-12-12 22:00:01,15.404637300000005,0.0004135,53.2158,270.2694,289.7925,297.1805,7.329299999999999e-06,-1.04e-06,0.0,0 STARLINK-3246,1 49732U 21115J   21346.91668981 -.00000104  00000-0  73293-5 0  9994,2 49732  53.2158 270.2694 0004135 289.7925 297.1805 15.40463730  1990,6822.877,93.478,447.56300000000016,441.92,0.0
49732.0,STARLINK-3246,PAYLOAD,2021-12-13 06:00:00,15.40511539,0.0003728,53.2165,268.6984,295.4672,341.0364,-0.0089138,-0.00351359,0.0,0 STARLINK-3246,1 49732U 21115J   21347.25001157 -.00351359  00000-0 -89138-2 0  9992,2 49732  53.2165 268.6984 0003728 295.4672 341.0364 15.40511539  2857,6822.736,93.475,447.144,442.057,0.0
49732.0,STARLINK-3246,PAYLOAD,2021-12-13 14:00:01,15.40366762,0.0002949,53.2172,267.1222,311.1745,14.8153,-0.016799,-0.00642302,0.0,0 STARLINK-3246,1 49732U 21115J   21347.58334491 -.00642302  00000-0 -16799-1 0  9991,2 49732  53.2172 267.1222 0002949 311.1745  14.8153 15.40366762  2098,6823.163000000001,93.484,447.04,443.016,0.0
49732.0,STARLINK-3246,PAYLOAD,2021-12-13 22:00:00,15.39910709,0.0003168999999999,53.2175,265.5485,349.4971,25.5844,-0.017572,-0.00660464,0.0,0 STARLINK-3246,1 49732U 21115J   21347.91667824 -.00660464  00000-0 -17572-1 0  9996,2 49732  53.2175 265.5485 0003169 349.4971  25.5844 15.39910709  2959,6824.51,93.512,448.538,444.212,0.0
49732.0,STARLINK-3246,PAYLOAD,2021-12-14 14:00:01,15.38983229,0.0003481,53.2174,262.4029,315.8278,155.9852,-0.018437,-0.00671302,0.0,0 STARLINK-3246,1 49732U 21115J   21348.58334491 -.00671302  00000-0 -18437-1 0  9995,2 49732  53.2174 262.4029 0003481 315.8278 155.9852 15.38983229  2258,6827.252,93.568,451.49300000000005,446.74,0.0
49732.0,STARLINK-3246,PAYLOAD,2021-12-14 20:00:01,15.38632534,0.0005777,53.2175,261.2248,298.4793,119.0302,-0.018555,-0.00668532,0.0,0 STARLINK-3246,1 49732U 21115J   21348.83334491 -.00668532  00000-0 -18555-1 0  9995,2 49732  53.2175 261.2248 0005777 298.4793 119.0302 15.38632534  3091,6828.2890000000025,93.59,454.099,446.209,0.0
49732.0,STARLINK-3246,PAYLOAD,2021-12-14 22:00:00,15.38514931,0.000554,53.2174,260.8327,304.7919,214.5475,-0.018689,-0.00670556,0.0,0 STARLINK-3246,1 49732U 21115J   21348.91667824 -.00670556  00000-0 -18689-1 0  9990,2 49732  53.2174 260.8327 0005540 304.7919 214.5475 15.38514931  2307,6828.637,93.597,454.285,446.719,0.0
49732.0,STARLINK-3246,PAYLOAD,2021-12-15 14:22:36,15.37546656,0.0001788,53.2173,257.6195,308.0089,31.5609,-0.018507,-0.00644514,0.0,0 STARLINK-3246,1 49732U 21115J   21349.59902778 -.00644514  00000-0 -18507-1 0  9999,2 49732  53.2173 257.6195 0001788 308.0089  31.5609 15.37546656  2414,6831.504,93.656,454.59,452.147,0.0
49732.0,STARLINK-3246,PAYLOAD,2021-12-15 22:00:01,15.37106225,0.0001369,53.2176,256.1268,7.7126,290.9061,-0.019036,-0.00652829,0.0,0 STARLINK-3246,1 49732U 21115J   21349.91668981 -.00652829  00000-0 -19036-1 0  9996,2 49732  53.2176 256.1268 0001369   7.7126 290.9061 15.37106225  3263,6832.809,93.683,455.609,453.73800000000006,0.0
49732.0,STARLINK-3246,PAYLOAD,2021-12-16 14:00:01,15.36175867,0.0001256,53.2173,252.9939,54.5305,334.029,-0.019775,-0.00657644,0.0,0 STARLINK-3246,1 49732U 21115J   21350.58334491 -.00657644  00000-0 -19775-1 0  9997,2 49732  53.2173 252.9939 0001256  54.5305 334.0290 15.36175867  2566,6835.566999999999,93.739,458.291,456.574,0.0
49732.0,STARLINK-3246,PAYLOAD,2021-12-16 22:00:01,15.35711618,0.0001520999999999,53.2176,251.4311,44.6021,28.1815,-0.020201,-0.00661557,0.0,0 STARLINK-3246,1 49732U 21115J   21350.91668981 -.00661557  00000-0 -20201-1 0  9992,2 49732  53.2176 251.4311 0001521  44.6021  28.1815 15.35711618  2616,6836.945,93.768,459.85,457.77,0.0
49732.0,STARLINK-3246,PAYLOAD,2021-12-17 02:00:01,15.35480085,0.0001325,53.2176,250.6511,71.143,203.5088,-0.020409,-0.0066325,0.0,0 STARLINK-3246,1 49732U 21115J   21351.08335648 -.00663250  00000-0 -20409-1 0  9994,2 49732  53.2176 250.6511 0001325  71.1430 203.5088 15.35480085  3444,6837.632,93.782,460.403,458.591,0.0
49732.0,STARLINK-3246,PAYLOAD,2021-12-17 21:07:29,15.34539847,0.0002555,53.215,246.9693,79.3608,280.7683,-0.0141229999999999,-0.00452088,0.0,0 STARLINK-3246,1 49732U 21115J   21351.88020733 -.00452088  00000-0 -14123-1 0  9999,2 49732  53.2150 246.9693 0002555  79.3608 280.7683 15.34539847  2456,6840.425,93.839,464.037,460.542,0.0
49732.0,STARLINK-3246,PAYLOAD,2021-12-18 06:00:00,15.33846115,0.0001335,53.2171,245.1856,73.7004,170.0588,-0.021477,-0.0066244,0.0,0 STARLINK-3246,1 49732U 21115J   21352.25001157 -.00662440  00000-0 -21477-1 0  9995,2 49732  53.2171 245.1856 0001335  73.7004 170.0588 15.33846115  3627,6842.486999999999,93.882,465.265,463.439,0.0
49732.0,STARLINK-3246,PAYLOAD,2021-12-18 14:00:01,15.33376549,0.0001329,53.2173,243.6252,65.9198,219.2,-0.021625,-0.00657486,0.0,0 STARLINK-3246,1 49732U 21115J   21352.58334491 -.00657486  00000-0 -21625-1 0  9990,2 49732  53.2173 243.6252 0001329  65.9198 219.2000 15.33376549  2872,6843.884,93.91,466.658,464.839,0.0
49732.0,STARLINK-3246,PAYLOAD,2021-12-18 22:08:55,15.33303665,0.0002653,53.2166,242.0923,14.0474,346.0602,-0.010281,-0.00321959,0.0,0 STARLINK-3246,1 49732U 21115J   21352.92285937 -.00321959  00000-0 -10281-1 0  9997,2 49732  53.2166 242.0923 0002653  14.0474 346.0602 15.33303665  2613,6844.101,93.915,467.781,464.15,0.0
49732.0,STARLINK-3246,PAYLOAD,2021-12-19 14:00:01,15.31976766,0.0001238,53.2173,238.9557,60.8462,344.9854,-0.022612,-0.00657705,0.0,0 STARLINK-3246,1 49732U 21115J   21353.58334491 -.00657705  00000-0 -22612-1 0  9992,2 49732  53.2173 238.9557 0001238  60.8462 344.9854 15.31976766  3828,6848.052,93.996,470.765,469.069,0.0
